[{"OBJECT_NAME":"STARLINK-32606","OBJECT_ID":"2024-210V","EPOCH":"2026-03-08T07:46:58.635264","MEAN_MOTION":15.27608245,"ECCENTRICITY":0.00022434,"INCLINATION":43.0008,"RA_OF_ASC_NODE":187.3144,"ARG_OF_PERICENTER":295.6512,"MEAN_ANOMALY":64.4108,"EPHEMERIS_TYPE":0,"CLASSIFICATION_TYPE":"U","NORAD_CAT_ID":61978,"ELEMENT_SET_NO":999,"REV_AT_EPOCH":7467,"BSTAR":0.0014874755,"MEAN_MOTION_DOT":0.00040934,"MEAN_MOTION_DDOT":0},{"OBJECT_NAME":"OBJECT BD","OBJECT_ID":"2025-313BD","EPOCH":"2026-03-09T15:06:44.992224","MEAN_MOTION":15.3000236,"ECCENTRICITY":0.00072867,"INCLINATION":97.397,"RA_OF_ASC_NODE":145.285,"ARG_OF_PERICENTER":333.4514,"MEAN_ANOMALY":26.6352,"EPHEMERIS_TYPE":0,"CLASSIFICATION_TYPE":"U","NORAD_CAT_ID":67299,"ELEMENT_SET_NO":999,"REV_AT_EPOCH":1083,"BSTAR":0.0027633805,"MEAN_MOTION_DOT":0.0008101,"MEAN_MOTION_DDOT":0}]
